Subject:
MAJOR BODY #C(500@0)_T(499) (1/1)
From:
Horizons Ephemeris System <horizons@ssd.jpl.nasa.gov>
Date:
Fri, 24 Sep 2004 11:38:09 -0700 (PDT)

 Automated mail xmit by PORT_LOGIN, PID=   15852 Fri Sep 24 11:38:09 2004
++++++++++++++++++++++++++++++++ (part 1 of 1)  +++++++++++++++++++++++++++++++

*******************************************************************************
Ephemeris / PORT_LOGIN Fri Sep 24 11:38:05 2004  Pasadena, USA   / Horizons    
*******************************************************************************
Target body name: Mars (499)                      {source: DE-0406LE-0406}
Center body name: Solar System Barycenter (0)     {source: DE-0406LE-0406}
Center-site name: BODYCENTRIC
*******************************************************************************
Start time      : A.D. 1968-Dec-20 00:00:00.0000 CT 
Stop  time      : A.D. 1968-Dec-29 00:00:00.0000 CT 
Step-size       : 60 minutes
*******************************************************************************
Center geodetic : 0.000000,  0.000000,  0.00000   {E-lon(deg),Lat(deg),Alt(km)}
Center cylindric: 0.00000,     0.000,     0.000   {E-lon(deg),Dxy(km),Dz(km)}
Center radii    : (undefined)                                                  
Output units    : AU-D                                                         
Output format   : 03
Reference frame : ICRF/J2000.0                                                 
Output type     : GEOMETRIC cartesian states
Coordinate systm: Ecliptic and Mean Equinox of Reference Epoch                 
*******************************************************************************
JDCT 
   X     Y     Z
   VX    VY    VZ
   LT    RG    RR
*******************************************************************************
$$SOE
2440219.250000000 = A.D. 1968-Dec-28 18:00:00.0000 (CT)
  -1.647004041853445E+00  1.037090172310725E-01  4.282148610166432E-02
  -3.514627024761197E-04 -1.276771560442597E-02 -2.588213228628312E-04
   9.534349710313512E-03  1.650821478479298E+00 -4.581657493688904E-04
2440219.291666667 = A.D. 1968-Dec-28 19:00:00.0000 (CT)
  -1.647018592610112E+00  1.031770232053452E-01  4.281069945178042E-02
  -3.469735850563731E-04 -1.276799739092845E-02 -2.589378673467904E-04
   9.534239407911640E-03  1.650802380210441E+00 -4.585511492152980E-04
2440219.333333333 = A.D. 1968-Dec-28 20:00:00.0000 (CT)
  -1.647032956316165E+00  1.026450174684594E-01  4.279990794640356E-02
  -3.424842731279365E-04 -1.276827774000953E-02 -2.590543865239837E-04
   9.534129012769316E-03  1.650783265884074E+00 -4.589365099326506E-04
2440219.375000000 = A.D. 1968-Dec-28 21:00:00.0000 (CT)
  -1.647047132963509E+00  1.021130000803103E-01  4.278911158658838E-02
  -3.379947670562377E-04 -1.276855665154624E-02 -2.591708803828299E-04
   9.534018524895955E-03  1.650764135501825E+00 -4.593218314852340E-04
2440219.416666667 = A.D. 1968-Dec-28 22:00:00.0000 (CT)
  -1.647061122544062E+00  1.015809711007981E-01  4.277831037339012E-02
  -3.335050672067717E-04 -1.276883412541563E-02 -2.592873489117464E-04
   9.533907944300991E-03  1.650744989065328E+00 -4.597071138373274E-04
2440219.458333333 = A.D. 1968-Dec-28 23:00:00.0000 (CT)
  -1.647074925049757E+00  1.010489305898283E-01  4.276750430786437E-02
  -3.290151739450978E-04 -1.276911016149480E-02 -2.594037920991461E-04
   9.533797270993861E-03  1.650725826576216E+00 -4.600923569532063E-04
2440219.500000000 = A.D. 1968-Dec-29 00:00:00.0000 (CT)
  -1.647088540472543E+00  1.005168786073112E-01  4.275669339106733E-02
  -3.245250876368402E-04 -1.276938475966082E-02 -2.595202099334484E-04
   9.533686504984011E-03  1.650706648036127E+00 -4.604775607971401E-04
